[{"OBJECT_NAME":"TEVEL2-6","OBJECT_ID":"2025-052F","EPOCH":"2026-03-09T15:35:24.554400","MEAN_MOTION":15.30760889,"ECCENTRICITY":0.0004769,"INCLINATION":97.4016,"RA_OF_ASC_NODE":325.0381,"ARG_OF_PERICENTER":95.6604,"MEAN_ANOMALY":264.5181,"EPHEMERIS_TYPE":0,"CLASSIFICATION_TYPE":"U","NORAD_CAT_ID":63215,"ELEMENT_SET_NO":999,"REV_AT_EPOCH":5486,"BSTAR":0.00070909,"MEAN_MOTION_DOT":0.00021046,"MEAN_MOTION_DDOT":0},{"OBJECT_NAME":"STARLINK-34860","OBJECT_ID":"2025-190G","EPOCH":"2026-03-09T13:17:54.976128","MEAN_MOTION":15.30190653,"ECCENTRICITY":7.806e-5,"INCLINATION":53.1577,"RA_OF_ASC_NODE":168.8627,"ARG_OF_PERICENTER":68.5983,"MEAN_ANOMALY":291.51,"EPHEMERIS_TYPE":0,"CLASSIFICATION_TYPE":"U","NORAD_CAT_ID":65357,"ELEMENT_SET_NO":999,"REV_AT_EPOCH":2926,"BSTAR":0.00084197603,"MEAN_MOTION_DOT":0.00024653,"MEAN_MOTION_DDOT":0}]
